[{"OBJECT_NAME":"STARLINK-6070","OBJECT_ID":"2023-078AM","EPOCH":"2026-03-09T22:00:01.999584","MEAN_MOTION":15.33868458,"ECCENTRICITY":0.00035577,"INCLINATION":70.001,"RA_OF_ASC_NODE":321.9382,"ARG_OF_PERICENTER":287.8141,"MEAN_ANOMALY":182.2971,"EPHEMERIS_TYPE":0,"CLASSIFICATION_TYPE":"U","NORAD_CAT_ID":56802,"ELEMENT_SET_NO":999,"REV_AT_EPOCH":575,"BSTAR":0.031099255,"MEAN_MOTION_DOT":0.0111992,"MEAN_MOTION_DDOT":0},{"OBJECT_NAME":"OBJECT C","OBJECT_ID":"2024-173C","EPOCH":"2026-03-09T23:00:13.423680","MEAN_MOTION":15.43533019,"ECCENTRICITY":0.0013225,"INCLINATION":97.3461,"RA_OF_ASC_NODE":150.2678,"ARG_OF_PERICENTER":142.6968,"MEAN_ANOMALY":217.5201,"EPHEMERIS_TYPE":0,"CLASSIFICATION_TYPE":"U","NORAD_CAT_ID":61229,"ELEMENT_SET_NO":999,"REV_AT_EPOCH":8139,"BSTAR":0.00079015478,"MEAN_MOTION_DOT":0.00035589,"MEAN_MOTION_DDOT":0}]
